OBJECT_NAME,OBJECT_ID,EPOCH,MEAN_MOTION,ECCENTRICITY,INCLINATION,RA_OF_ASC_NODE,ARG_OF_PERICENTER,MEAN_ANOMALY,EPHEMERIS_TYPE,CLASSIFICATION_TYPE,NORAD_CAT_ID,ELEMENT_SET_NO,REV_AT_EPOCH,BSTAR,MEAN_MOTION_DOT,MEAN_MOTION_DDOT
UNKNOWN,,2024-07-01T18:00:36.321696,12.97303003,.00198176,90.2515,350.4619,145.6712,214.5694,0,U,270192,999,21726,.28646051E-2,.837E-5,0
UNKNOWN,,2024-07-02T16:58:38.944416,12.96762883,.0031624,90.2374,353.2839,89.7668,270.7076,0,U,270195,999,21563,.81794498E-3,.243E-5,0
UNKNOWN,,2024-07-03T22:55:26.502240,13.93897688,.00607657,64.6941,71.1514,328.5840,31.1598,0,U,270196,999,23382,.5230959E-3,.609E-5,0
UNKNOWN,,2024-06-29T21:39:36.006048,13.80373266,.0382754,97.5706,239.7130,298.7296,57.5903,0,U,270197,999,23000,.17307708E-2,.3113E-4,0
UNKNOWN,,2024-07-02T17:39:31.183776,13.07109871,.06182147,72.6820,184.7284,64.2797,302.0764,0,U,270199,999,21796,.3986076E-2,.3362E-4,0
UNKNOWN,,2024-07-05T14:43:49.582848,13.97946260,.00321857,82.5302,140.7914,7.9941,352.1733,0,U,270202,999,23413,.27835317E-2,.3978E-4,0
UNKNOWN,,2024-06-20T18:28:54.255360,13.00163345,.00344984,90.2414,356.1005,25.0729,335.2059,0,U,270203,999,21608,-.13924715E-2,-.413E-5,0
UNKNOWN,,2024-06-11T09:53:58.758432,12.24405102,.00544403,47.2166,208.4744,69.6869,290.9761,0,U,270205,999,20164,.56363453E-2,.533E-5,0
UNKNOWN,,2024-07-04T19:01:30.586368,15.26046199,.00087571,86.3580,211.5779,102.1812,258.0416,0,U,270206,999,24611,.73184903E-2,.193159E-2,0
UNKNOWN,,2024-07-02T00:46:41.940768,12.88756732,.02146153,82.4885,290.4382,177.3673,182.8619,0,U,270211,999,21565,.1447092E-3,.53E-6,0
UNKNOWN,,2024-07-04T13:22:33.721536,14.29022804,.01892477,97.0847,305.3702,51.7218,310.0824,0,U,270213,999,864,.14225193E-2,.4335E-4,0
UNKNOWN,,2024-06-30T04:26:22.900992,13.05200241,.0030497,90.3064,356.0492,226.7835,133.0743,0,U,270216,999,21500,.9939702E-3,.33E-5,0
UNKNOWN,,2024-07-04T07:21:44.213472,12.10440728,.08625337,83.3323,46.6062,182.4315,177.2422,0,U,270217,999,20292,.51867628E-2,.1505E-4,0
UNKNOWN,,2024-07-04T02:48:18.580608,12.56878741,.00290131,101.8517,155.2871,151.4666,208.8002,0,U,270219,999,20930,.75866595E-4,-.33E-6,0
UNKNOWN,,2024-07-05T06:51:47.947968,13.29914622,.0565456,73.1488,197.1762,4.5172,356.0720,0,U,270224,999,21790,.59025523E-2,.6676E-4,0
UNKNOWN,,2024-06-25T13:54:59.691456,11.79136257,.07777998,69.2399,260.2228,21.3383,341.8237,0,U,270225,999,19335,-.32257485E-2,-.486E-5,0
UNKNOWN,,2024-06-27T19:27:35.174592,11.66957562,.03983757,101.2185,21.6995,4.1954,356.2259,0,U,270226,999,19290,.82199975E-4,-.27E-6,0
UNKNOWN,,2024-06-15T23:30:53.590752,12.53392288,.01438618,82.4482,251.2920,130.5952,230.7755,0,U,270227,999,20235,.24190535E-2,.411E-5,0
UNKNOWN,,2024-07-05T12:19:25.120416,12.24482501,.01409356,74.0097,285.5587,27.1593,333.6726,0,U,270228,999,20149,.19311259E-3,.7E-7,0
