0 TBA - TO BE ASSIGNED
1 T0192U          24183.75042039  .00000837  00000-0  28646-2 0  9996
2 T0192  90.2515 350.4619 0019818 145.6712 214.5694 12.97303003217264
0 TBA - TO BE ASSIGNED
1 T0195U          24184.70739519  .00000243  00000-0  81794-3 0  9996
2 T0195  90.2374 353.2839 0031624  89.7668 270.7076 12.96762883215633
0 TBA - TO BE ASSIGNED
1 T0196U          24185.95516785  .00000609  00000-0  52310-3 0  9991
2 T0196  64.6941  71.1514 0060766 328.5840  31.1598 13.93897688233829
0 TBA - TO BE ASSIGNED
1 T0197U          24181.90250007  .00003113  00000-0  17308-2 0  9995
2 T0197  97.5706 239.7130 0382754 298.7296  57.5903 13.80373266230003
0 TBA - TO BE ASSIGNED
1 T0199U          24184.73577759  .00003362  00000-0  39861-2 0  9991
2 T0199  72.6820 184.7284 0618215  64.2797 302.0764 13.07109871217962
0 TBA - TO BE ASSIGNED
1 T0202U          24187.61376832  .00003978  00000-0  27835-2 0  9996
2 T0202  82.5302 140.7914 0032186   7.9941 352.1733 13.97946260234136
0 TBA - TO BE ASSIGNED
1 T0203U          24172.77007240 -.00000413  00000-0 -13925-2 0  9990
2 T0203  90.2414 356.1005 0034498  25.0729 335.2059 13.00163345216080
0 TBA - TO BE ASSIGNED
1 T0205U          24163.41248563  .00000533  00000-0  56363-2 0  9992
2 T0205  47.2166 208.4744 0054440  69.6869 290.9761 12.24405102201643
0 TBA - TO BE ASSIGNED
1 T0206U          24186.79271512  .00193159  00000-0  73185-2 0  9997
2 T0206  86.3580 211.5779 0008757 102.1812 258.0416 15.26046199246117
0 TBA - TO BE ASSIGNED
1 T0211U          24184.03242987  .00000053  00000-0  14471-3 0  9996
2 T0211  82.4885 290.4382 0214615 177.3673 182.8619 12.88756732215655
0 TBA - TO BE ASSIGNED
1 T0213U          24186.55733474  .00004335  00000-0  14225-2 0  9996
2 T0213  97.0847 305.3702 0189248  51.7218 310.0824 14.29022804  8647
0 TBA - TO BE ASSIGNED
1 T0216U          24182.18498728  .00000330  00000-0  99397-3 0  9999
2 T0216  90.3064 356.0492 0030497 226.7835 133.0743 13.05200241215005
0 TBA - TO BE ASSIGNED
1 T0217U          24186.30676173  .00001505  00000-0  51868-2 0  9995
2 T0217  83.3323  46.6062 0862534 182.4315 177.2422 12.10440728202929
0 TBA - TO BE ASSIGNED
1 T0219U          24186.11688172 -.00000033  00000-0  75867-4 0  9991
2 T0219 101.8517 155.2871 0029013 151.4666 208.8002 12.56878741209303
0 TBA - TO BE ASSIGNED
1 T0224U          24187.28597162  .00006676  00000-0  59026-2 0  9999
2 T0224  73.1488 197.1762 0565456   4.5172 356.0720 13.29914622217905
0 TBA - TO BE ASSIGNED
1 T0225U          24177.57985754 -.00000486  00000-0 -32257-2 0  9991
2 T0225  69.2399 260.2228 0777800  21.3383 341.8237 11.79136257193351
0 TBA - TO BE ASSIGNED
1 T0226U          24179.81082378 -.00000027  00000-0  82200-4 0  9996
2 T0226 101.2185  21.6995 0398376   4.1954 356.2259 11.66957562192902
0 TBA - TO BE ASSIGNED
1 T0227U          24167.97978693  .00000411  00000-0  24191-2 0  9994
2 T0227  82.4482 251.2920 0143862 130.5952 230.7755 12.53392288202355
0 TBA - TO BE ASSIGNED
1 T0228U          24187.51348519  .00000007  00000-0  19311-3 0  9995
2 T0228  74.0097 285.5587 0140936  27.1593 333.6726 12.24482501201496
